{
  "norad_id": 68575,
  "name": "KUIPER-00192",
  "history": [
    {
      "epoch": "2026-04-09T12:03:50.930784Z",
      "apogee_km": 457.078201317373,
      "perigee_km": 449.92001300429,
      "latitude_deg": 2.9092744425431826e-05,
      "longitude_deg": 130.3702707102809,
      "height_km": 455.6694421291539,
      "semi_major_axis_km": 6831.636107160832,
      "eccentricity": 0.0005239,
      "inclination_deg": 51.874,
      "raan_deg": 149.0824,
      "arg_perigee_deg": 113.2812,
      "mean_anomaly_deg": 246.8727,
      "mean_motion_rev_day": 15.37501946
    },
    {
      "epoch": "2026-04-11T20:00:01.000224Z",
      "apogee_km": 456.9107201078714,
      "perigee_km": 449.8223520388419,
      "latitude_deg": -38.00161484027775,
      "longitude_deg": -39.816329710497094,
      "height_km": 469.08837718115456,
      "semi_major_axis_km": 6831.503536073356,
      "eccentricity": 0.0005188,
      "inclination_deg": 51.8747,
      "raan_deg": 137.8105,
      "arg_perigee_deg": 121.4975,
      "mean_anomaly_deg": 187.3317,
      "mean_motion_rev_day": 15.37546701
    },
    {
      "epoch": "2026-04-13T06:00:02.000160Z",
      "apogee_km": 456.80119977778486,
      "perigee_km": 449.74380724789626,
      "latitude_deg": -40.614545499582015,
      "longitude_deg": 61.51862928210949,
      "height_km": 467.7867974130683,
      "semi_major_axis_km": 6831.40950351284,
      "eccentricity": 0.00051654,
      "inclination_deg": 51.8751,
      "raan_deg": 130.9591,
      "arg_perigee_deg": 125.0308,
      "mean_anomaly_deg": 110.4158,
      "mean_motion_rev_day": 15.37578447
    },
    {
      "epoch": "2026-04-14T20:00:01.999008Z",
      "apogee_km": 456.7249647256831,
      "perigee_km": 449.7487657345109,
      "latitude_deg": 4.152041606052675,
      "longitude_deg": -16.465288963275423,
      "height_km": 455.54233118727893,
      "semi_major_axis_km": 6831.373865230097,
      "eccentricity": 0.0005106,
      "inclination_deg": 51.8746,
      "raan_deg": 123.2992,
      "arg_perigee_deg": 130.0762,
      "mean_anomaly_deg": 235.3188,
      "mean_motion_rev_day": 15.37590479
    },
    {
      "epoch": "2026-04-15T17:48:57.414816Z",
      "apogee_km": 456.61797204919367,
      "perigee_km": 449.6828490699936,
      "latitude_deg": -1.1272232454044172e-05,
      "longitude_deg": 7.763332153688291,
      "height_km": 456.24534273774645,
      "semi_major_axis_km": 6831.287410559594,
      "eccentricity": 0.0005076,
      "inclination_deg": 51.8742,
      "raan_deg": 118.9026,
      "arg_perigee_deg": 132.3803,
      "mean_anomaly_deg": 227.7614,
      "mean_motion_rev_day": 15.37619668
    },
    {
      "epoch": "2026-04-16T17:12:49.682880Z",
      "apogee_km": 456.58277058338444,
      "perigee_km": 449.6736289603359,
      "latitude_deg": -3.620989441296633e-05,
      "longitude_deg": 11.118815315008844,
      "height_km": 456.363029790139,
      "semi_major_axis_km": 6831.26519977186,
      "eccentricity": 0.0005057,
      "inclination_deg": 51.8737,
      "raan_deg": 114.1868,
      "arg_perigee_deg": 135.8062,
      "mean_anomaly_deg": 224.3329,
      "mean_motion_rev_day": 15.37627167
    },
    {
      "epoch": "2026-04-17T21:17:27.368448Z",
      "apogee_km": 456.5028495079996,
      "perigee_km": 449.6336627506462,
      "latitude_deg": -3.495038020554695e-05,
      "longitude_deg": -56.85059229710399,
      "height_km": 456.46494050285685,
      "semi_major_axis_km": 6831.205256129323,
      "eccentricity": 0.00050278,
      "inclination_deg": 51.8736,
      "raan_deg": 108.5275,
      "arg_perigee_deg": 140.187,
      "mean_anomaly_deg": 219.9486,
      "mean_motion_rev_day": 15.37647406
    },
    {
      "epoch": "2026-04-21T15:45:29.337120Z",
      "apogee_km": 456.09260710225226,
      "perigee_km": 449.42701799256884,
      "latitude_deg": 7.017994055424365e-07,
      "longitude_deg": 4.19057122353914,
      "height_km": 456.47886287645696,
      "semi_major_axis_km": 6830.89681254741,
      "eccentricity": 0.0004879,
      "inclination_deg": 51.8758,
      "raan_deg": 90.2922,
      "arg_perigee_deg": 152.5976,
      "mean_anomaly_deg": 207.5269,
      "mean_motion_rev_day": 15.37751554
    },
    {
      "epoch": "2026-04-21T15:45:29.337984Z",
      "apogee_km": 456.092743720189,
      "perigee_km": 449.426881374633,
      "latitude_deg": -1.3525174422016353e-07,
      "longitude_deg": 4.190566960420563,
      "height_km": 456.4789841615438,
      "semi_major_axis_km": 6830.89681254741,
      "eccentricity": 0.00048792,
      "inclination_deg": 51.8758,
      "raan_deg": 90.2922,
      "arg_perigee_deg": 152.5976,
      "mean_anomaly_deg": 207.5269,
      "mean_motion_rev_day": 15.37751554
    },
    {
      "epoch": "2026-04-24T09:16:09.635232Z",
      "apogee_km": 457.80428374174335,
      "perigee_km": 450.9171260552057,
      "latitude_deg": -5.9863988981221955e-05,
      "longitude_deg": 85.62916056719617,
      "height_km": 458.4878175043177,
      "semi_major_axis_km": 6832.497704898474,
      "eccentricity": 0.000504,
      "inclination_deg": 51.8749,
      "raan_deg": 77.0892,
      "arg_perigee_deg": 167.7782,
      "mean_anomaly_deg": 192.3327,
      "mean_motion_rev_day": 15.3721113
    }
  ]
}